{
  "type": "FeatureCollection",
  "features": [
    {
      "type": "Feature",
      "properties": {
        "norad_id": 66174,
        "name": "HTV-X1",
        "group": "stations",
        "lat": -51.05975815960379,
        "lon": -33.497508770258996,
        "alt_km": 420.2129890483693,
        "timestamp": "2025-12-27T19:21:57.578372+00:00",
        "meta_object_name": "HTV-X1",
        "meta_object_id": "2025-241A",
        "meta_epoch": "2025-12-27T04:18:31.505184",
        "meta_mean_motion": 15.49864323,
        "meta_eccentricity": 0.00032283,
        "meta_inclination": 51.6319,
        "meta_ra_of_asc_node": 70.9638,
        "meta_arg_of_pericenter": 308.9173,
        "meta_mean_anomaly": 51.1527,
        "meta_ephemeris_type": 0,
        "meta_classification_type": "U",
        "meta_norad_cat_id": 66174,
        "meta_element_set_no": 999,
        "meta_rev_at_epoch": 51,
        "meta_bstar": 0.0002516974,
        "meta_mean_motion_dot": 0.00013867,
        "meta_mean_motion_ddot": 0,
        "tle_line1": "1 66174U 25241A   25361.17953131  .00013867  00000+0  25170-3 0  9997",
        "tle_line2": "2 66174  51.6319  70.9638 0003228 308.9173  51.1527 15.49864323   512"
      },
      "geometry": {
        "type": "Point",
        "coordinates": [
          -33.497508770258996,
          -51.05975815960379
        ]
      }
    },
    {
      "type": "Feature",
      "properties": {
        "norad_id": 66515,
        "name": "SZ-21 MODULE",
        "group": "stations",
        "lat": -17.31596078536776,
        "lon": -96.58753752773232,
        "alt_km": 376.95161005290356,
        "timestamp": "2025-12-27T19:21:57.578381+00:00",
        "meta_object_name": "SZ-21 MODULE",
        "meta_object_id": "2025-246C",
        "meta_epoch": "2025-12-27T11:48:49.053024",
        "meta_mean_motion": 15.63283022,
        "meta_eccentricity": 0.0004075,
        "meta_inclination": 41.4763,
        "meta_ra_of_asc_node": 286.0025,
        "meta_arg_of_pericenter": 340.5581,
        "meta_mean_anomaly": 19.5103,
        "meta_ephemeris_type": 0,
        "meta_classification_type": "U",
        "meta_norad_cat_id": 66515,
        "meta_element_set_no": 999,
        "meta_rev_at_epoch": 675,
        "meta_bstar": 0.00031547,
        "meta_mean_motion_dot": 0.00029574,
        "meta_mean_motion_ddot": 0,
        "tle_line1": "1 66515U 25246C   25361.49223441  .00029574  00000+0  31547-3 0  9997",
        "tle_line2": "2 66515  41.4763 286.0025 0004075 340.5581  19.5103 15.63283022  6754"
      },
      "geometry": {
        "type": "Point",
        "coordinates": [
          -96.58753752773232,
          -17.31596078536776
        ]
      }
    },
    {
      "type": "Feature",
      "properties": {
        "norad_id": 66645,
        "name": "SHENZHOU-22",
        "group": "stations",
        "lat": -35.263510270184845,
        "lon": 158.39000607854416,
        "alt_km": 389.9964086651289,
        "timestamp": "2025-12-27T19:21:57.578392+00:00",
        "meta_object_name": "SHENZHOU-22",
        "meta_object_id": "2025-272A",
        "meta_epoch": "2025-12-27T06:02:45.823200",
        "meta_mean_motion": 15.59750285,
        "meta_eccentricity": 0.0008745,
        "meta_inclination": 41.4675,
        "meta_ra_of_asc_node": 288.5662,
        "meta_arg_of_pericenter": 157.7703,
        "meta_mean_anomaly": 202.3516,
        "meta_ephemeris_type": 0,
        "meta_classification_type": "U",
        "meta_norad_cat_id": 66645,
        "meta_element_set_no": 999,
        "meta_rev_at_epoch": 26598,
        "meta_bstar": 0.00024488937,
        "meta_mean_motion_dot": 0.0001992,
        "meta_mean_motion_ddot": 0,
        "tle_line1": "1 66645U 25272A   25361.25191925  .00019920  00000+0  24489-3 0  9996",
        "tle_line2": "2 66645  41.4675 288.5662 0008745 157.7703 202.3516 15.59750285265983"
      },
      "geometry": {
        "type": "Point",
        "coordinates": [
          158.39000607854416,
          -35.263510270184845
        ]
      }
    },
    {
      "type": "Feature",
      "properties": {
        "norad_id": 66664,
        "name": "SOYUZ-MS 28",
        "group": "stations",
        "lat": -51.05995090645042,
        "lon": -33.49598082517168,
        "alt_km": 420.218385614623,
        "timestamp": "2025-12-27T19:21:57.578402+00:00",
        "meta_object_name": "SOYUZ-MS 28",
        "meta_object_id": "2025-275A",
        "meta_epoch": "2025-12-27T10:29:55.432032",
        "meta_mean_motion": 15.49871717,
        "meta_eccentricity": 0.0003234,
        "meta_inclination": 51.632,
        "meta_ra_of_asc_node": 69.6861,
        "meta_arg_of_pericenter": 310.1185,
        "meta_mean_anomaly": 49.952,
        "meta_ephemeris_type": 0,
        "meta_classification_type": "U",
        "meta_norad_cat_id": 66664,
        "meta_element_set_no": 999,
        "meta_rev_at_epoch": 54513,
        "meta_bstar": 0.00024415,
        "meta_mean_motion_dot": 0.0001344,
        "meta_mean_motion_ddot": 0,
        "tle_line1": "1 66664U 25275A   25361.43744713  .00013440  00000+0  24415-3 0  9999",
        "tle_line2": "2 66664  51.6320  69.6861 0003234 310.1185  49.9520 15.49871717545131"
      },
      "geometry": {
        "type": "Point",
        "coordinates": [
          -33.49598082517168,
          -51.05995090645042
        ]
      }
    },
    {
      "type": "Feature",
      "properties": {
        "norad_id": 66906,
        "name": "1998-067XS",
        "group": "stations",
        "lat": 1.2294896127810568,
        "lon": 68.62523214030922,
        "alt_km": 412.97844958147834,
        "timestamp": "2025-12-27T19:21:57.578412+00:00",
        "meta_object_name": "1998-067XS",
        "meta_object_id": "1998-067XS",
        "meta_epoch": "2025-12-27T11:37:45.622848",
        "meta_mean_motion": 15.51372826,
        "meta_eccentricity": 0.0002659,
        "meta_inclination": 51.6319,
        "meta_ra_of_asc_node": 69.2523,
        "meta_arg_of_pericenter": 278.8538,
        "meta_mean_anomaly": 81.215,
        "meta_ephemeris_type": 0,
        "meta_classification_type": "U",
        "meta_norad_cat_id": 66906,
        "meta_element_set_no": 999,
        "meta_rev_at_epoch": 390,
        "meta_bstar": 0.00048079,
        "meta_mean_motion_dot": 0.00028453,
        "meta_mean_motion_ddot": 0,
        "tle_line1": "1 66906U 98067XS  25361.48455582  .00028453  00000+0  48079-3 0  9997",
        "tle_line2": "2 66906  51.6319  69.2523 0002659 278.8538  81.2150 15.51372826  3903"
      },
      "geometry": {
        "type": "Point",
        "coordinates": [
          68.62523214030922,
          1.2294896127810568
        ]
      }
    },
    {
      "type": "Feature",
      "properties": {
        "norad_id": 66907,
        "name": "1998-067XT",
        "group": "stations",
        "lat": 51.50086013015556,
        "lon": 162.57095660138202,
        "alt_km": 401.6644168719595,
        "timestamp": "2025-12-27T19:21:57.578422+00:00",
        "meta_object_name": "1998-067XT",
        "meta_object_id": "1998-067XT",
        "meta_epoch": "2025-12-27T09:42:09.227808",
        "meta_mean_motion": 15.53307188,
        "meta_eccentricity": 0.0003783,
        "meta_inclination": 51.632,
        "meta_ra_of_asc_node": 69.4664,
        "meta_arg_of_pericenter": 315.9002,
        "meta_mean_anomaly": 44.1686,
        "meta_ephemeris_type": 0,
        "meta_classification_type": "U",
        "meta_norad_cat_id": 66907,
        "meta_element_set_no": 999,
        "meta_rev_at_epoch": 389,
        "meta_bstar": 0.0010591,
        "meta_mean_motion_dot": 0.0006817,
        "meta_mean_motion_ddot": 0,
        "tle_line1": "1 66907U 98067XT  25361.40427347  .00068170  00000+0  10591-2 0  9995",
        "tle_line2": "2 66907  51.6320  69.4664 0003783 315.9002  44.1686 15.53307188  3893"
      },
      "geometry": {
        "type": "Point",
        "coordinates": [
          162.57095660138202,
          51.50086013015556
        ]
      }
    },
    {
      "type": "Feature",
      "properties": {
        "norad_id": 66908,
        "name": "1998-067XU",
        "group": "stations",
        "lat": 50.576474236095635,
        "lon": 172.93553796302814,
        "alt_km": 402.1339162260265,
        "timestamp": "2025-12-27T19:21:57.578431+00:00",
        "meta_object_name": "1998-067XU",
        "meta_object_id": "1998-067XU",
        "meta_epoch": "2025-12-27T11:13:06.748608",
        "meta_mean_motion": 15.53347401,
        "meta_eccentricity": 0.0004039,
        "meta_inclination": 51.6324,
        "meta_ra_of_asc_node": 69.1374,
        "meta_arg_of_pericenter": 312.9995,
        "meta_mean_anomaly": 47.0657,
        "meta_ephemeris_type": 0,
        "meta_classification_type": "U",
        "meta_norad_cat_id": 66908,
        "meta_element_set_no": 999,
        "meta_rev_at_epoch": 390,
        "meta_bstar": 0.00092502,
        "meta_mean_motion_dot": 0.00059503,
        "meta_mean_motion_ddot": 0,
        "tle_line1": "1 66908U 98067XU  25361.46743922  .00059503  00000+0  92502-3 0  9995",
        "tle_line2": "2 66908  51.6324  69.1374 0004039 312.9995  47.0657 15.53347401  3900"
      },
      "geometry": {
        "type": "Point",
        "coordinates": [
          172.93553796302814,
          50.576474236095635
        ]
      }
    }
  ]
}